[Satellite]
VERSION=1.1
NAME=METEOR PRIRODA
NICKNAME=METEOR PRIRODA
TLE1=1 12585U 81065A   15055.14293748  .00006907  00000-0  35570-3 0  9990
TLE2=2 12585  97.3413  42.6240 0018152 107.9745  22.1810 15.16568134834142
